HULIANWANG DIGUI-156    
1 68130U 26047B   26196.71381460 -.00000097  00000+0  57260-4 0  9991
2 68130  50.0051 314.0018 0000869 204.9368 155.1463 13.29326175 16857
HULIANWANG DIGUI-157    
1 68131U 26047C   26196.70547799 -.00000100  00000+0  51148-4 0  9994
2 68131  50.0020 313.9289 0000894 200.1923 159.8914 13.29325456 16869
HULIANWANG DIGUI-158    
1 68132U 26047D   26196.69709413 -.00000089  00000+0  75601-4 0  9992
2 68132  50.0059 313.9333 0000927 201.3693 158.7140 13.29324203 16853
HULIANWANG DIGUI-159    
1 68133U 26047E   26196.76393815 -.00000091  00000+0  71593-4 0  9995
2 68133  50.0030 313.5883 0001064 195.8479 164.2360 13.29326038 16877
HULIANWANG DIGUI-160    
1 68134U 26047F   26196.52161070 -.00000092  00000+0  68040-4 0  9990
2 68134  50.0092 314.3709 0001094 183.2304 176.8562 13.29325795 16831
HULIANWANG DIGUI-161    
1 68135U 26047G   26196.68032442 -.00000090  00000+0  73003-4 0  9991
2 68135  50.0111 313.8959 0000918 197.3682 162.7159 13.29334440 16860
HULIANWANG DIGUI-162    
1 68136U 26047H   26196.51348922 -.00000098  00000+0  56555-4 0  9998
2 68136  50.0081 314.3189 0000901 203.7090 156.3740 13.29324186 16833
HULIANWANG DIGUI-163    
1 68137U 26047J   26196.73047464 -.00000092  00000+0  69290-4 0  9994
2 68137  50.0082 313.4686 0000771 204.2185 155.8651 13.29339079 16879
HULIANWANG DIGUI-164    
1 68656U 26076A   26196.91055195  .00000009  00000+0 -12242-4 0  9995
2 68656  86.4946  34.1766 0002015  78.5264 281.6096 13.24410815 13170
HULIANWANG DIGUI-165    
1 68657U 26076B   26196.90300869 -.00000023  00000+0 -87625-4 0  9990
2 68657  86.4965  34.1959 0002161  84.2532 275.8848 13.24413353 13170
HULIANWANG DIGUI-166    
1 68658U 26076C   26196.89551540 -.00000015  00000+0 -68560-4 0  9991
2 68658  86.4907  34.1295 0002121  84.2895 275.8481 13.24411411 13174
HULIANWANG DIGUI-167    
1 68659U 26076D   26196.96344234  .00000000  00000+0 -35304-4 0  9993
2 68659  86.4961  34.1602 0002118  84.0416 276.0959 13.24413512 13188
HULIANWANG DIGUI-168    
1 68660U 26076E   26196.95589187 -.00000017  00000+0 -73092-4 0  9997
2 68660  86.4942  34.1358 0002141  84.7442 275.3936 13.24411670 13178
