{"fetched_at":"2026-07-16T06:43:00.092Z","source":"https://celestrak.org/NORAD/elements/gp.php?NAME=HULIANWANG&FORMAT=JSON","constellation":"guowang","records":[{"OBJECT_NAME":"HULIANWANG DIGUI-156","OBJECT_ID":"2026-047B","EPOCH":"2026-07-15T17:07:53.581440","CLASSIFICATION_TYPE":"U","MEAN_MOTION":13.29326175,"ECCENTRICITY":0.00008697,"INCLINATION":50.0051,"RA_OF_ASC_NODE":314.0018,"ARG_OF_PERICENTER":204.9368,"MEAN_ANOMALY":155.1463,"EPHEMERIS_TYPE":0,"NORAD_CAT_ID":68130,"ELEMENT_SET_NO":999,"REV_AT_EPOCH":1685,"BSTAR":0.000057259863,"MEAN_MOTION_DOT":-9.7e-7,"MEAN_MOTION_DDOT":0},{"OBJECT_NAME":"HULIANWANG DIGUI-157","OBJECT_ID":"2026-047C","EPOCH":"2026-07-15T16:55:53.298336","CLASSIFICATION_TYPE":"U","MEAN_MOTION":13.29325456,"ECCENTRICITY":0.00008943,"INCLINATION":50.002,"RA_OF_ASC_NODE":313.9289,"ARG_OF_PERICENTER":200.1923,"MEAN_ANOMALY":159.8914,"EPHEMERIS_TYPE":0,"NORAD_CAT_ID":68131,"ELEMENT_SET_NO":999,"REV_AT_EPOCH":1686,"BSTAR":0.000051148009,"MEAN_MOTION_DOT":-0.000001,"MEAN_MOTION_DDOT":0},{"OBJECT_NAME":"HULIANWANG DIGUI-158","OBJECT_ID":"2026-047D","EPOCH":"2026-07-15T16:43:48.932832","CLASSIFICATION_TYPE":"U","MEAN_MOTION":13.29324203,"ECCENTRICITY":0.00009276,"INCLINATION":50.0059,"RA_OF_ASC_NODE":313.9333,"ARG_OF_PERICENTER":201.3693,"MEAN_ANOMALY":158.714,"EPHEMERIS_TYPE":0,"NORAD_CAT_ID":68132,"ELEMENT_SET_NO":999,"REV_AT_EPOCH":1685,"BSTAR":0.000075601262,"MEAN_MOTION_DOT":-8.9e-7,"MEAN_MOTION_DDOT":0},{"OBJECT_NAME":"HULIANWANG DIGUI-159","OBJECT_ID":"2026-047E","EPOCH":"2026-07-15T18:20:04.256160","CLASSIFICATION_TYPE":"U","MEAN_MOTION":13.29326038,"ECCENTRICITY":0.00010646,"INCLINATION":50.003,"RA_OF_ASC_NODE":313.5883,"ARG_OF_PERICENTER":195.8479,"MEAN_ANOMALY":164.236,"EPHEMERIS_TYPE":0,"NORAD_CAT_ID":68133,"ELEMENT_SET_NO":999,"REV_AT_EPOCH":1687,"BSTAR":0.000071593202,"MEAN_MOTION_DOT":-9.1e-7,"MEAN_MOTION_DDOT":0},{"OBJECT_NAME":"HULIANWANG DIGUI-160","OBJECT_ID":"2026-047F","EPOCH":"2026-07-15T12:31:07.164480","CLASSIFICATION_TYPE":"U","MEAN_MOTION":13.29325795,"ECCENTRICITY":0.00010942,"INCLINATION":50.0092,"RA_OF_ASC_NODE":314.3709,"ARG_OF_PERICENTER":183.2304,"MEAN_ANOMALY":176.8562,"EPHEMERIS_TYPE":0,"NORAD_CAT_ID":68134,"ELEMENT_SET_NO":999,"REV_AT_EPOCH":1683,"BSTAR":0.000068040384,"MEAN_MOTION_DOT":-9.2e-7,"MEAN_MOTION_DDOT":0},{"OBJECT_NAME":"HULIANWANG DIGUI-161","OBJECT_ID":"2026-047G","EPOCH":"2026-07-15T16:19:40.029888","CLASSIFICATION_TYPE":"U","MEAN_MOTION":13.2933444,"ECCENTRICITY":0.00009186,"INCLINATION":50.0111,"RA_OF_ASC_NODE":313.8959,"ARG_OF_PERICENTER":197.3682,"MEAN_ANOMALY":162.7159,"EPHEMERIS_TYPE":0,"NORAD_CAT_ID":68135,"ELEMENT_SET_NO":999,"REV_AT_EPOCH":1686,"BSTAR":0.000073003321,"MEAN_MOTION_DOT":-9e-7,"MEAN_MOTION_DDOT":0},{"OBJECT_NAME":"HULIANWANG DIGUI-162","OBJECT_ID":"2026-047H","EPOCH":"2026-07-15T12:19:25.468608","CLASSIFICATION_TYPE":"U","MEAN_MOTION":13.29324186,"ECCENTRICITY":0.00009016,"INCLINATION":50.0081,"RA_OF_ASC_NODE":314.3189,"ARG_OF_PERICENTER":203.709,"MEAN_ANOMALY":156.374,"EPHEMERIS_TYPE":0,"NORAD_CAT_ID":68136,"ELEMENT_SET_NO":999,"REV_AT_EPOCH":1683,"BSTAR":0.00005655476,"MEAN_MOTION_DOT":-9.8e-7,"MEAN_MOTION_DDOT":0},{"OBJECT_NAME":"HULIANWANG DIGUI-163","OBJECT_ID":"2026-047J","EPOCH":"2026-07-15T17:31:53.008896","CLASSIFICATION_TYPE":"U","MEAN_MOTION":13.29339079,"ECCENTRICITY":0.00007716,"INCLINATION":50.0082,"RA_OF_ASC_NODE":313.4686,"ARG_OF_PERICENTER":204.2185,"MEAN_ANOMALY":155.8651,"EPHEMERIS_TYPE":0,"NORAD_CAT_ID":68137,"ELEMENT_SET_NO":999,"REV_AT_EPOCH":1687,"BSTAR":0.000069289744,"MEAN_MOTION_DOT":-9.2e-7,"MEAN_MOTION_DDOT":0},{"OBJECT_NAME":"HULIANWANG DIGUI-164","OBJECT_ID":"2026-076A","EPOCH":"2026-07-15T21:51:11.688480","CLASSIFICATION_TYPE":"U","MEAN_MOTION":13.24410815,"ECCENTRICITY":0.00020156,"INCLINATION":86.4946,"RA_OF_ASC_NODE":34.1766,"ARG_OF_PERICENTER":78.5264,"MEAN_ANOMALY":281.6096,"EPHEMERIS_TYPE":0,"NORAD_CAT_ID":68656,"ELEMENT_SET_NO":999,"REV_AT_EPOCH":1317,"BSTAR":-0.000012241628,"MEAN_MOTION_DOT":9e-8,"MEAN_MOTION_DDOT":0},{"OBJECT_NAME":"HULIANWANG DIGUI-165","OBJECT_ID":"2026-076B","EPOCH":"2026-07-15T21:40:19.950816","CLASSIFICATION_TYPE":"U","MEAN_MOTION":13.24413353,"ECCENTRICITY":0.00021616,"INCLINATION":86.4965,"RA_OF_ASC_NODE":34.1959,"ARG_OF_PERICENTER":84.2532,"MEAN_ANOMALY":275.8848,"EPHEMERIS_TYPE":0,"NORAD_CAT_ID":68657,"ELEMENT_SET_NO":999,"REV_AT_EPOCH":1317,"BSTAR":-0.00008762462,"MEAN_MOTION_DOT":-2.3e-7,"MEAN_MOTION_DDOT":0},{"OBJECT_NAME":"HULIANWANG DIGUI-166","OBJECT_ID":"2026-076C","EPOCH":"2026-07-15T21:29:32.530560","CLASSIFICATION_TYPE":"U","MEAN_MOTION":13.24411411,"ECCENTRICITY":0.00021215,"INCLINATION":86.4907,"RA_OF_ASC_NODE":34.1295,"ARG_OF_PERICENTER":84.2895,"MEAN_ANOMALY":275.8481,"EPHEMERIS_TYPE":0,"NORAD_CAT_ID":68658,"ELEMENT_SET_NO":999,"REV_AT_EPOCH":1317,"BSTAR":-0.000068560008,"MEAN_MOTION_DOT":-1.5e-7,"MEAN_MOTION_DDOT":0},{"OBJECT_NAME":"HULIANWANG DIGUI-167","OBJECT_ID":"2026-076D","EPOCH":"2026-07-15T23:07:21.418176","CLASSIFICATION_TYPE":"U","MEAN_MOTION":13.24413512,"ECCENTRICITY":0.00021188,"INCLINATION":86.4961,"RA_OF_ASC_NODE":34.1602,"ARG_OF_PERICENTER":84.0416,"MEAN_ANOMALY":276.0959,"EPHEMERIS_TYPE":0,"NORAD_CAT_ID":68659,"ELEMENT_SET_NO":999,"REV_AT_EPOCH":1318,"BSTAR":-0.000035303583,"MEAN_MOTION_DOT":0,"MEAN_MOTION_DDOT":0},{"OBJECT_NAME":"HULIANWANG DIGUI-168","OBJECT_ID":"2026-076E","EPOCH":"2026-07-15T22:56:29.057568","CLASSIFICATION_TYPE":"U","MEAN_MOTION":13.2441167,"ECCENTRICITY":0.00021417,"INCLINATION":86.4942,"RA_OF_ASC_NODE":34.1358,"ARG_OF_PERICENTER":84.7442,"MEAN_ANOMALY":275.3936,"EPHEMERIS_TYPE":0,"NORAD_CAT_ID":68660,"ELEMENT_SET_NO":999,"REV_AT_EPOCH":1317,"BSTAR":-0.00007309185,"MEAN_MOTION_DOT":-1.7e-7,"MEAN_MOTION_DDOT":0}]}
